GLOBALSTAR M035         
1 25851U 99037A   25061.88274449 -.00000064  00000+0 -17303-4 0  9998
2 25851  51.9948 292.0398 0013784 165.5636 280.2572 11.04536584 84518
GLOBALSTAR M032         
1 25852U 99037B   25061.59041279  .00000047  00000+0  36472-2 0  9995
2 25852  51.9938 125.2378 0010872 349.0309  11.0253 11.19060623122852
GLOBALSTAR M051         
1 25853U 99037C   25062.07688632 -.00000040  00000+0  78614-3 0  9999
2 25853  51.9800 296.8755 0001539  47.9975 312.0966 11.42204151120280
GLOBALSTAR M030         
1 25854U 99037D   25062.16549652 -.00000102  00000+0 -56428-3 0  9997
2 25854  51.9866 109.5032 0003930 214.9671 145.0888 11.55099975137899
GLOBALSTAR M048         
1 25872U 99041A   25061.91002845 -.00000073  00000+0 -86077-4 0  9993
2 25872  51.9339 228.1986 0013056   5.6187 151.1665 11.33855021112923
GLOBALSTAR M026         
1 25873U 99041B   25061.42922216 -.00000025  00000+0  14303-2 0  9990
2 25873  52.0018  52.1258 0001707  84.6787  85.4272 11.06828451136667
GLOBALSTAR M043         
1 25874U 99041C   25061.89236218 -.00000009  00000+0  17687-2 0  9992
2 25874  51.9437 331.6517 0013609 129.1070 308.8578 11.25690565110902
GLOBALSTAR M028         
1 25875U 99041D   25061.53397483 -.00000050  00000+0  32110-3 0  9991
2 25875  51.9618 151.0847 0063486 199.2696 160.5762 12.50578063176833
